NORAD_CAT_ID,OBJECT_NAME,OBJECT_TYPE,EPOCH,MEAN_MOTION,ECCENTRICITY,INCLINATION,RA_OF_ASC_NODE,ARG_OF_PERICENTER,MEAN_ANOMALY,BSTAR,MEAN_MOTION_DOT,MEAN_MOTION_DDOT,TLE_LINE0,TLE_LINE1,TLE_LINE2,SEMIMAJOR_AXIS,PERIOD,APOGEE,PERIGEE,DECAYED
52646.0,STARLINK-3832,PAYLOAD,2024-08-19 12:19:55,15.08839811,0.0001327,53.2167,285.3149,90.1585,269.9559,0.00010985,1.461e-05,0.0,0 STARLINK-3832,1 52646U 22052BA  24232.51384005  .00001461  00000-0  10985-3 0  9991,2 52646  53.2167 285.3149 0001327  90.1585 269.9559 15.08839811125515,6917.881,95.438,540.664,538.828,0.0
52646.0,STARLINK-3832,PAYLOAD,2024-08-20 04:13:47,15.08836023,0.0001408,53.2173,282.3434,97.0774,263.0379,6.0113e-05,6.69e-06,0.0,0 STARLINK-3832,1 52646U 22052BA  24233.17624577  .00000669  00000-0  60113-4 0  9993,2 52646  53.2173 282.3434 0001408  97.0774 263.0379 15.08836023125610,6917.893,95.438,540.732,538.784,0.0
52646.0,STARLINK-3832,PAYLOAD,2024-08-21 10:26:06,15.08844523,0.0001368,53.216,276.6917,91.7459,268.369,8.9064e-05,1.13e-05,0.0,0 STARLINK-3832,1 52646U 22052BA  24234.43480040  .00001130  00000-0  89064-4 0  9998,2 52646  53.2160 276.6917 0001368  91.7459 268.3690 15.08844523126174,6917.867,95.437,540.678,538.785,0.0
52646.0,STARLINK-3832,PAYLOAD,2024-08-21 19:58:25,15.08841737,0.0001373,53.216,274.9068,87.6437,272.4712,8.5551e-05,1.074e-05,0.0,0 STARLINK-3832,1 52646U 22052BA  24234.83224209  .00001074  00000-0  85551-4 0  9999,2 52646  53.2160 274.9068 0001373  87.6437 272.4712 15.08841737125868,6917.875,95.437,540.69,538.79,0.0
